{
  "type": "FeatureCollection",
  "features": [
    {
      "type": "Feature",
      "properties": {
        "norad_id": 34141,
        "name": "COSMOS 2251 DEB",
        "group": "cosmos-2251-debris",
        "lat": 13.050337234566653,
        "lon": -174.9935175129334,
        "alt_km": 719.9050651849657,
        "timestamp": "2025-12-23T09:49:07.476808+00:00",
        "meta_object_name": "COSMOS 2251 DEB",
        "meta_object_id": "1993-036LN",
        "meta_epoch": "2025-12-22T12:06:19.785888",
        "meta_mean_motion": 14.49332316,
        "meta_eccentricity": 0.00464942,
        "meta_inclination": 74.0109,
        "meta_ra_of_asc_node": 10.5163,
        "meta_arg_of_pericenter": 93.1805,
        "meta_mean_anomaly": 34.0549,
        "meta_ephemeris_type": 0,
        "meta_classification_type": "U",
        "meta_norad_cat_id": 34141,
        "meta_element_set_no": 999,
        "meta_rev_at_epoch": 87835,
        "meta_bstar": 0.0013928106,
        "meta_mean_motion_dot": 5.369e-05,
        "meta_mean_motion_ddot": 0,
        "tle_line1": "1 34141U 93036LN  25356.50439567  .00005369  00000+0  13928-2 0  9991",
        "tle_line2": "2 34141  74.0109  10.5163 0046494  93.1805  34.0549 14.49332316878357"
      },
      "geometry": {
        "type": "Point",
        "coordinates": [
          -174.9935175129334,
          13.050337234566653
        ]
      }
    },
    {
      "type": "Feature",
      "properties": {
        "norad_id": 34270,
        "name": "COSMOS 2251 DEB",
        "group": "cosmos-2251-debris",
        "lat": 11.899667459335777,
        "lon": -70.46979711541856,
        "alt_km": 661.8542145767524,
        "timestamp": "2025-12-23T09:49:07.476818+00:00",
        "meta_object_name": "COSMOS 2251 DEB",
        "meta_object_id": "1993-036LQ",
        "meta_epoch": "2025-12-22T22:17:31.910784",
        "meta_mean_motion": 14.65242865,
        "meta_eccentricity": 0.00479728,
        "meta_inclination": 74.0116,
        "meta_ra_of_asc_node": 286.9915,
        "meta_arg_of_pericenter": 76.7233,
        "meta_mean_anomaly": 283.9279,
        "meta_ephemeris_type": 0,
        "meta_classification_type": "U",
        "meta_norad_cat_id": 34270,
        "meta_element_set_no": 999,
        "meta_rev_at_epoch": 89245,
        "meta_bstar": 0.00070883355,
        "meta_mean_motion_dot": 3.855e-05,
        "meta_mean_motion_ddot": 0,
        "tle_line1": "1 34270U 93036LQ  25356.92884156  .00003855  00000+0  70883-3 0  9990",
        "tle_line2": "2 34270  74.0116 286.9915 0047972  76.7233 283.9279 14.65242865892455"
      },
      "geometry": {
        "type": "Point",
        "coordinates": [
          -70.46979711541856,
          11.899667459335777
        ]
      }
    },
    {
      "type": "Feature",
      "properties": {
        "norad_id": 34271,
        "name": "COSMOS 2251 DEB",
        "group": "cosmos-2251-debris",
        "lat": 3.6934417216785556,
        "lon": -2.46552096457931,
        "alt_km": 652.790251254678,
        "timestamp": "2025-12-23T09:49:07.476828+00:00",
        "meta_object_name": "COSMOS 2251 DEB",
        "meta_object_id": "1993-036LR",
        "meta_epoch": "2025-12-22T11:55:42.494304",
        "meta_mean_motion": 14.70960843,
        "meta_eccentricity": 0.00182961,
        "meta_inclination": 74.0192,
        "meta_ra_of_asc_node": 180.3666,
        "meta_arg_of_pericenter": 233.6422,
        "meta_mean_anomaly": 154.5734,
        "meta_ephemeris_type": 0,
        "meta_classification_type": "U",
        "meta_norad_cat_id": 34271,
        "meta_element_set_no": 999,
        "meta_rev_at_epoch": 88378,
        "meta_bstar": 0.0022763733,
        "meta_mean_motion_dot": 0.00013988,
        "meta_mean_motion_ddot": 0,
        "tle_line1": "1 34271U 93036LR  25356.49701961  .00013988  00000+0  22764-2 0  9997",
        "tle_line2": "2 34271  74.0192 180.3666 0018296 233.6422 154.5734 14.70960843883785"
      },
      "geometry": {
        "type": "Point",
        "coordinates": [
          -2.46552096457931,
          3.6934417216785556
        ]
      }
    },
    {
      "type": "Feature",
      "properties": {
        "norad_id": 34273,
        "name": "COSMOS 2251 DEB",
        "group": "cosmos-2251-debris",
        "lat": -7.201542495115719,
        "lon": -110.89935152665514,
        "alt_km": 682.9050559680736,
        "timestamp": "2025-12-23T09:49:07.476838+00:00",
        "meta_object_name": "COSMOS 2251 DEB",
        "meta_object_id": "1993-036LT",
        "meta_epoch": "2025-12-22T06:58:03.451008",
        "meta_mean_motion": 14.61305097,
        "meta_eccentricity": 0.00135807,
        "meta_inclination": 74.0358,
        "meta_ra_of_asc_node": 69.1662,
        "meta_arg_of_pericenter": 194.9715,
        "meta_mean_anomaly": 229.1706,
        "meta_ephemeris_type": 0,
        "meta_classification_type": "U",
        "meta_norad_cat_id": 34273,
        "meta_element_set_no": 999,
        "meta_rev_at_epoch": 88761,
        "meta_bstar": 0.00082891395,
        "meta_mean_motion_dot": 4.071e-05,
        "meta_mean_motion_ddot": 0,
        "tle_line1": "1 34273U 93036LT  25356.29031772  .00004071  00000+0  82891-3 0  9994",
        "tle_line2": "2 34273  74.0358  69.1662 0013580 194.9715 229.1706 14.61305097887614"
      },
      "geometry": {
        "type": "Point",
        "coordinates": [
          -110.89935152665514,
          -7.201542495115719
        ]
      }
    },
    {
      "type": "Feature",
      "properties": {
        "norad_id": 34274,
        "name": "COSMOS 2251 DEB",
        "group": "cosmos-2251-debris",
        "lat": 44.16452799708594,
        "lon": 64.18850000647258,
        "alt_km": 686.530403522549,
        "timestamp": "2025-12-23T09:49:07.476848+00:00",
        "meta_object_name": "COSMOS 2251 DEB",
        "meta_object_id": "1993-036LU",
        "meta_epoch": "2025-12-22T14:30:07.644096",
        "meta_mean_motion": 14.64886943,
        "meta_eccentricity": 0.00214539,
        "meta_inclination": 74.0037,
        "meta_ra_of_asc_node": 49.5609,
        "meta_arg_of_pericenter": 199.0285,
        "meta_mean_anomaly": 284.8567,
        "meta_ephemeris_type": 0,
        "meta_classification_type": "U",
        "meta_norad_cat_id": 34274,
        "meta_element_set_no": 999,
        "meta_rev_at_epoch": 88820,
        "meta_bstar": 0.0010110757,
        "meta_mean_motion_dot": 5.396e-05,
        "meta_mean_motion_ddot": 0,
        "tle_line1": "1 34274U 93036LU  25356.60425514  .00005396  00000+0  10111-2 0  9997",
        "tle_line2": "2 34274  74.0037  49.5609 0021453 199.0285 284.8567 14.64886943888204"
      },
      "geometry": {
        "type": "Point",
        "coordinates": [
          64.18850000647258,
          44.16452799708594
        ]
      }
    },
    {
      "type": "Feature",
      "properties": {
        "norad_id": 34276,
        "name": "COSMOS 2251 DEB",
        "group": "cosmos-2251-debris",
        "lat": 50.289012624174866,
        "lon": 85.21453497968888,
        "alt_km": 711.5137551427915,
        "timestamp": "2025-12-23T09:49:07.476858+00:00",
        "meta_object_name": "COSMOS 2251 DEB",
        "meta_object_id": "1993-036LW",
        "meta_epoch": "2025-12-21T23:47:17.316960",
        "meta_mean_motion": 14.57284799,
        "meta_eccentricity": 0.00222541,
        "meta_inclination": 74.0239,
        "meta_ra_of_asc_node": 67.7315,
        "meta_arg_of_pericenter": 213.6612,
        "meta_mean_anomaly": 323.8377,
        "meta_ephemeris_type": 0,
        "meta_classification_type": "U",
        "meta_norad_cat_id": 34276,
        "meta_element_set_no": 999,
        "meta_rev_at_epoch": 88727,
        "meta_bstar": 0.00065538143,
        "meta_mean_motion_dot": 2.946e-05,
        "meta_mean_motion_ddot": 0,
        "tle_line1": "1 34276U 93036LW  25355.99117265  .00002946  00000+0  65538-3 0  9993",
        "tle_line2": "2 34276  74.0239  67.7315 0022254 213.6612 323.8377 14.57284799887275"
      },
      "geometry": {
        "type": "Point",
        "coordinates": [
          85.21453497968888,
          50.289012624174866
        ]
      }
    },
    {
      "type": "Feature",
      "properties": {
        "norad_id": 34297,
        "name": "COSMOS 2251 DEB",
        "group": "cosmos-2251-debris",
        "lat": -5.96651594518339,
        "lon": -97.07155122036538,
        "alt_km": 761.3148811122082,
        "timestamp": "2025-12-23T09:49:07.476868+00:00",
        "meta_object_name": "COSMOS 2251 DEB",
        "meta_object_id": "1993-036MT",
        "meta_epoch": "2025-12-22T20:47:01.827168",
        "meta_mean_motion": 14.36637665,
        "meta_eccentricity": 0.00176724,
        "meta_inclination": 74.0487,
        "meta_ra_of_asc_node": 265.6383,
        "meta_arg_of_pericenter": 332.478,
        "meta_mean_anomaly": 93.5198,
        "meta_ephemeris_type": 0,
        "meta_classification_type": "U",
        "meta_norad_cat_id": 34297,
        "meta_element_set_no": 999,
        "meta_rev_at_epoch": 88210,
        "meta_bstar": 0.00013403277,
        "meta_mean_motion_dot": 3.69e-06,
        "meta_mean_motion_ddot": 0,
        "tle_line1": "1 34297U 93036MT  25356.86599337  .00000369  00000+0  13403-3 0  9998",
        "tle_line2": "2 34297  74.0487 265.6383 0017672 332.4780  93.5198 14.36637665882101"
      },
      "geometry": {
        "type": "Point",
        "coordinates": [
          -97.07155122036538,
          -5.96651594518339
        ]
      }
    }
  ]
}